[{"OBJECT_NAME":"STARLINK-31798","OBJECT_ID":"2024-082E","EPOCH":"2026-03-09T06:27:34.526304","MEAN_MOTION":15.27569587,"ECCENTRICITY":0.00010215,"INCLINATION":43.0027,"RA_OF_ASC_NODE":142.5253,"ARG_OF_PERICENTER":256.0206,"MEAN_ANOMALY":104.0533,"EPHEMERIS_TYPE":0,"CLASSIFICATION_TYPE":"U","NORAD_CAT_ID":59635,"ELEMENT_SET_NO":999,"REV_AT_EPOCH":10474,"BSTAR":-8.255374e-5,"MEAN_MOTION_DOT":-2.532e-5,"MEAN_MOTION_DDOT":0},{"OBJECT_NAME":"GEOSCAN 5 (RS92S5)","OBJECT_ID":"2025-155R","EPOCH":"2026-03-09T22:01:07.273920","MEAN_MOTION":15.30265233,"ECCENTRICITY":0.00070849,"INCLINATION":97.4462,"RA_OF_ASC_NODE":37.7456,"ARG_OF_PERICENTER":154.5846,"MEAN_ANOMALY":205.5745,"EPHEMERIS_TYPE":0,"CLASSIFICATION_TYPE":"U","NORAD_CAT_ID":64891,"ELEMENT_SET_NO":999,"REV_AT_EPOCH":6562,"BSTAR":0.00068639307,"MEAN_MOTION_DOT":0.00020065,"MEAN_MOTION_DDOT":0}]
